[Satellite]
VERSION=1.1
NAME=FLOCK 2E-5
NICKNAME=FLOCK 2E-5
TLE1=1 41564U 98067JN  18021.10677626  .00025454  00000-0  16476-3 0  9994
TLE2=2 41564  51.6291 345.4693 0001721   4.9584 355.1432 15.75884023 94000
